INMARSAT 4-F2 (SOUTHPA*)
1 28899U 05044A   26133.69697505 -.00000247  00000+0  00000+0 0  9993
2 28899   5.0506  43.7377 0002736  11.5731 210.5601  1.00270725 75170
GSAT-8 (GAGAN/PRN 127)  
1 37605U 11022A   26133.83071831  .00000099  00000+0  00000+0 0  9999
2 37605   2.0421  82.2157 0003638 222.9431 280.5593  1.00270808 52870
LUCH 5A (SDCM/PRN 140)  
1 37951U 11074B   26133.58725503 -.00000033  00000+0  00000+0 0  9993
2 37951   8.6666  74.3051 0002301 326.0625 209.4547  1.00274432 52707
SES-5 (EGNOS/PRN 136)   
1 38652U 12036A   26133.82083828  .00000047  00000+0  00000+0 0  9999
2 38652   0.0559 303.1267 0001794 104.9640 123.9832  1.00271669 44112
GSAT-10 (GAGAN/PRN 128) 
1 38779U 12051B   26132.41029139 -.00000152  00000+0  00000+0 0  9993
2 38779   0.0325 263.4015 0007415 180.5108  16.9140  1.00272605 49745
LUCH 5B (SDCM/PRN 125)  
1 38977U 12061A   26133.03238003 -.00000124  00000+0  00000+0 0  9994
2 38977  10.4085  50.2242 0001093 155.2602  20.6903  1.00271275 49258
ASTRA 5B (EGNOS/PRN 123)
1 39617U 14011B   26133.82447830  .00000150  00000+0  00000+0 0  9998
2 39617   0.0473 344.5009 0002386  48.3288 159.0750  1.00271465 44325
LUCH 5V (SDCM/PRN 141)  
1 39727U 14023A   26132.64076161 -.00000252  00000+0  00000+0 0  9991
2 39727   5.0461  70.0938 0002926   2.9852 122.6536  1.00266705 44008
GSAT-15 (GAGAN/PRN 139) 
1 41028U 15065A   26133.85233506 -.00000244  00000+0  00000+0 0  9998
2 41028   0.0283 250.0184 0003461 167.5782 214.3766  1.00271260 38458
EUTELSAT 117 WEST B (W*)
1 41589U 16038B   26133.15494515  .00000001  00000+0  00000+0 0  9993
2 41589   0.0206 121.2760 0000143 237.5358 170.8929  1.00273326 36310
SES-15 (WAAS/PRN 133)   
1 42709U 17026A   26133.55957640  .00000073  00000+0  00000+0 0  9992
2 42709   0.0212 327.2371 0000541  56.0276 280.3727  1.00270212  7089
QZS-2 (QZSS/PRN 194)    
1 42738U 17028A   26133.61641992 -.00000189  00000+0  00000+0 0  9992
2 42738  39.4811 243.6627 0762696 268.9021  80.5186  1.00293037  7275
QZS-3 (QZSS/PRN 199)    
1 42917U 17048A   26133.84501838 -.00000334  00000+0  00000+0 0  9994
2 42917   0.0676 132.4375 0001947 277.9425 252.4860  1.00272787 31911
QZS-4 (QZSS/PRN 195)    
1 42965U 17062A   26130.46506226 -.00000298  00000+0  00000+0 0  9993
2 42965  40.1305 343.9651 0745733 271.0890 280.1450  1.00262352 31429
BEIDOU-3 G1 (PRN 130)   
1 43683U 18085A   26133.70890306 -.00000093  00000+0  00000+0 0  9995
2 43683   2.9862  98.2826 0007540 339.3962 208.9822  1.00272631 27719
EUTELSAT 5 WEST B (EGN*)
1 44624U 19067A   26133.81884493 -.00000029  00000+0  00000+0 0  9993
2 44624   0.0663 353.9895 0003009  55.0627 112.3140  1.00271158 24098
BEIDOU-3 G2 (PRN 144)   
1 45344U 20017A   26133.83565833 -.00000127  00000+0  00000+0 0  9995
2 45344   2.7949  46.7981 0002592   9.6812 195.9994  1.00272569 22914
BEIDOU-3 G3 (PRN 143)   
1 45807U 20040A   26133.84172505 -.00000340  00000+0  00000+0 0  9993
2 45807   2.3625  67.3519 0003316 333.9777 243.8231  1.00275012 21720
GALAXY 30 (WAAS/PRN 135)
1 46114U 20056C   26133.80136597  .00000050  00000+0  00000+0 0  9996
2 46114   0.0119 321.9147 0002364 105.4813 327.6618  1.00271741 20944
QZS-1R (QZSS/PRN 196)   
1 49336U 21096A   26131.73655836 -.00000197  00000+0  00000+0 0  9995
2 49336  37.3883  80.1221 0752295 271.1006 279.0052  1.00268135 16648
QZS-6 (QZSS/PRN 200)    
1 62876U 25023A   26133.33867964 -.00000219  00000+0  00000+0 0  9993
2 62876   0.0722  80.2991 0002575 337.2806  25.9374  1.00268931  4609
